[{"OBJECT_NAME":"STARLINK-36499","OBJECT_ID":"2026-003AB","EPOCH":"2026-03-09T10:59:54.273120","MEAN_MOTION":15.27616462,"ECCENTRICITY":0.00019271,"INCLINATION":42.9994,"RA_OF_ASC_NODE":228.7861,"ARG_OF_PERICENTER":278.624,"MEAN_ANOMALY":81.4393,"EPHEMERIS_TYPE":0,"CLASSIFICATION_TYPE":"U","NORAD_CAT_ID":67359,"ELEMENT_SET_NO":999,"REV_AT_EPOCH":878,"BSTAR":0.0009206871,"MEAN_MOTION_DOT":0.00025188,"MEAN_MOTION_DDOT":0},{"OBJECT_NAME":"CZ-4C R\/B","OBJECT_ID":"2021-079B","EPOCH":"2026-03-09T14:04:29.438112","MEAN_MOTION":15.08928015,"ECCENTRICITY":0.0108377,"INCLINATION":98.3883,"RA_OF_ASC_NODE":282.6111,"ARG_OF_PERICENTER":26.1585,"MEAN_ANOMALY":334.506,"EPHEMERIS_TYPE":0,"CLASSIFICATION_TYPE":"U","NORAD_CAT_ID":49123,"ELEMENT_SET_NO":999,"REV_AT_EPOCH":24640,"BSTAR":0.00023549,"MEAN_MOTION_DOT":4.178e-5,"MEAN_MOTION_DDOT":0}]
